[{"OBJECT_NAME":"STARLINK-30240","OBJECT_ID":"2023-102A","EPOCH":"2026-03-09T22:00:01.999584","MEAN_MOTION":15.19463354,"ECCENTRICITY":9.931e-5,"INCLINATION":42.9994,"RA_OF_ASC_NODE":246.9127,"ARG_OF_PERICENTER":289.6396,"MEAN_ANOMALY":268.9521,"EPHEMERIS_TYPE":0,"CLASSIFICATION_TYPE":"U","NORAD_CAT_ID":57404,"ELEMENT_SET_NO":999,"REV_AT_EPOCH":567,"BSTAR":0.045670367,"MEAN_MOTION_DOT":0.01065995,"MEAN_MOTION_DDOT":0},{"OBJECT_NAME":"CLEMENTINE","OBJECT_ID":"1999-064B","EPOCH":"2026-03-09T16:58:36.056928","MEAN_MOTION":15.35516263,"ECCENTRICITY":0.00030137,"INCLINATION":98.1478,"RA_OF_ASC_NODE":152.1493,"ARG_OF_PERICENTER":134.888,"MEAN_ANOMALY":225.2607,"EPHEMERIS_TYPE":0,"CLASSIFICATION_TYPE":"U","NORAD_CAT_ID":25978,"ELEMENT_SET_NO":999,"REV_AT_EPOCH":69326,"BSTAR":0.00073237902,"MEAN_MOTION_DOT":0.00025245,"MEAN_MOTION_DDOT":0}]
